[
    {
        "Altitude(m)": 611965.2364431125,
        "Argument of Periapsis(deg)": 0.0,
        "Eccentricity": 0.0,
        "Inclination(deg)": 60.0,
        "Latitude(deg)": 59.14031642279479,
        "Longitude(deg)": 98.9698110218267,
        "Mean Anomaly(deg)": 81.8182,
        "RAAN(deg)": 125.00000000000001,
        "Satellite Name": "Test1 555",
        "Satellite Number": 555,
        "Semi-Major Axis(m)": 6980739.136638005,
        "Time(s)": 0
    },
    {
        "Altitude(m)": 611995.8618274394,
        "Argument of Periapsis(deg)": 0.00010418945913296404,
        "Eccentricity": 0.0,
        "Inclination(deg)": 60.0,
        "Latitude(deg)": 59.28341645556525,
        "Longitude(deg)": 100.10317830167084,
        "Mean Anomaly(deg)": 82.43830614546184,
        "RAAN(deg)": 124.99957995086027,
        "Satellite Name": "Test1 555",
        "Satellite Number": 555,
        "Semi-Major Axis(m)": 6980739.136638005,
        "Time(s)": 10
    },
    {
        "Altitude(m)": 612024.1463176507,
        "Argument of Periapsis(deg)": 0.0002083789182659281,
        "Eccentricity": 0.0,
        "Inclination(deg)": 60.0,
        "Latitude(deg)": 59.41583437964427,
        "Longitude(deg)": 101.24606919847965,
        "Mean Anomaly(deg)": 83.05841229092367,
        "RAAN(deg)": 124.99915990172053,
        "Satellite Name": "Test1 555",
        "Satellite Number": 555,
        "Semi-Major Axis(m)": 6980739.136638005,
        "Time(s)": 20
    },
    {
        "Altitude(m)": 612050.0736949634,
        "Argument of Periapsis(deg)": 0.00031256837739889213,
        "Eccentricity": 0.0,
        "Inclination(deg)": 60.0,
        "Latitude(deg)": 59.53743076896358,
        "Longitude(deg)": 102.39785569568865,
        "Mean Anomaly(deg)": 83.67851843638549,
        "RAAN(deg)": 124.99873985258078,
        "Satellite Name": "Test1 555",
        "Satellite Number": 555,
        "Semi-Major Axis(m)": 6980739.136638005,
        "Time(s)": 30
    },
    {
        "Altitude(m)": 612073.6291008451,
        "Argument of Periapsis(deg)": 0.0004167578365318562,
        "Eccentricity": 0.0,
        "Inclination(deg)": 60.0,
        "Latitude(deg)": 59.64807545388525,
        "Longitude(deg)": 103.55787416055193,
        "Mean Anomaly(deg)": 84.29862458184732,
        "RAAN(deg)": 124.99831980344105,
        "Satellite Name": "Test1 555",
        "Satellite Number": 555,
        "Semi-Major Axis(m)": 6980739.136638005,
        "Time(s)": 40
    },
    {
        "Altitude(m)": 612094.7990440255,
        "Argument of Periapsis(deg)": 0.0005209472956648203,
        "Eccentricity": 0.0,
        "Inclination(deg)": 60.0,
        "Latitude(deg)": 59.7476481743552,
        "Longitude(deg)": 104.72542620312821,
        "Mean Anomaly(deg)": 84.91873072730917,
        "RAAN(deg)": 124.99789975430129,
        "Satellite Name": "Test1 555",
        "Satellite Number": 555,
        "Semi-Major Axis(m)": 6980739.136638005,
        "Time(s)": 50
    },
    {
        "Altitude(m)": 612113.5714068488,
        "Argument of Periapsis(deg)": 0.0006251367547977843,
        "Eccentricity": 0.0,
        "Inclination(deg)": 60.0,
        "Latitude(deg)": 59.83603919949217,
        "Longitude(deg)": 105.89978138107777,
        "Mean Anomaly(deg)": 85.538836872771,
        "RAAN(deg)": 124.99747970516155,
        "Satellite Name": "Test1 555",
        "Satellite Number": 555,
        "Semi-Major Axis(m)": 6980739.136638005,
        "Time(s)": 60
    },
    {
        "Altitude(m)": 612129.9354509899,
        "Argument of Periapsis(deg)": 0.0007293262139307483,
        "Eccentricity": 0.0,
        "Inclination(deg)": 60.0,
        "Latitude(deg)": 59.91314990654897,
        "Longitude(deg)": 107.08018022683831,
        "Mean Anomaly(deg)": 86.15894301823282,
        "RAAN(deg)": 124.9970596560218,
        "Satellite Name": "Test1 555",
        "Satellite Number": 555,
        "Semi-Major Axis(m)": 6980739.136638005,
        "Time(s)": 70
    },
    {
        "Altitude(m)": 612143.8818225062,
        "Argument of Periapsis(deg)": 0.0008335156730637124,
        "Eccentricity": 0.0,
        "Inclination(deg)": 60.0,
        "Latitude(deg)": 59.97889331242001,
        "Longitude(deg)": 108.26583606814746,
        "Mean Anomaly(deg)": 86.77904916369465,
        "RAAN(deg)": 124.99663960688207,
        "Satellite Name": "Test1 555",
        "Satellite Number": 555,
        "Semi-Major Axis(m)": 6980739.136638005,
        "Time(s)": 80
    },
    {
        "Altitude(m)": 612155.4025562571,
        "Argument of Periapsis(deg)": 0.0009377051321966765,
        "Eccentricity": 0.0,
        "Inclination(deg)": 60.0,
        "Latitude(deg)": 60.033194551230196,
        "Longitude(deg)": 109.45593864584161,
        "Mean Anomaly(deg)": 87.39915530915648,
        "RAAN(deg)": 124.99621955774232,
        "Satellite Name": "Test1 555",
        "Satellite Number": 555,
        "Semi-Major Axis(m)": 6980739.136638005,
        "Time(s)": 90
    },
    {
        "Altitude(m)": 612164.4910796352,
        "Argument of Periapsis(deg)": 0.0010418945913296407,
        "Eccentricity": 0.0,
        "Inclination(deg)": 60.0,
        "Latitude(deg)": 60.07599129203588,
        "Longitude(deg)": 110.6496579887539,
        "Mean Anomaly(deg)": 88.0192614546183,
        "RAAN(deg)": 124.99579950860259,
        "Satellite Name": "Test1 555",
        "Satellite Number": 555,
        "Semi-Major Axis(m)": 6980739.136638005,
        "Time(s)": 100
    },
    {
        "Altitude(m)": 612171.1422156795,
        "Argument of Periapsis(deg)": 0.0011460840504626045,
        "Eccentricity": 0.0,
        "Inclination(deg)": 60.0,
        "Latitude(deg)": 60.10723409129761,
        "Longitude(deg)": 111.8461470004242,
        "Mean Anomaly(deg)": 88.63936760008013,
        "RAAN(deg)": 124.99537945946284,
        "Satellite Name": "Test1 555",
        "Satellite Number": 555,
        "Semi-Major Axis(m)": 6980739.136638005,
        "Time(s)": 110
    },
    {
        "Altitude(m)": 612175.3521854954,
        "Argument of Periapsis(deg)": 0.0012502735095955685,
        "Eccentricity": 0.0,
        "Inclination(deg)": 60.0,
        "Latitude(deg)": 60.12688667552736,
        "Longitude(deg)": 113.04454574639071,
        "Mean Anomaly(deg)": 89.25947374554197,
        "RAAN(deg)": 124.9949594103231,
        "Satellite Name": "Test1 555",
        "Satellite Number": 555,
        "Semi-Major Axis(m)": 6980739.136638005,
        "Time(s)": 120
    },
    {
        "Altitude(m)": 612177.11861004,
        "Argument of Periapsis(deg)": 0.0013544629687285324,
        "Eccentricity": 0.0,
        "Inclination(deg)": 60.0,
        "Latitude(deg)": 60.13492615037015,
        "Longitude(deg)": 114.24398588828339,
        "Mean Anomaly(deg)": 89.87957989100379,
        "RAAN(deg)": 124.99453936118336,
        "Satellite Name": "Test1 555",
        "Satellite Number": 555,
        "Semi-Major Axis(m)": 6980739.136638005,
        "Time(s)": 130
    },
    {
        "Altitude(m)": 612176.4405112411,
        "Argument of Periapsis(deg)": 0.0014586524278614966,
        "Eccentricity": 0.0,
        "Inclination(deg)": 60.0,
        "Latitude(deg)": 60.13134313332019,
        "Longitude(deg)": 115.44359370783386,
        "Mean Anomaly(deg)": 90.49968603646563,
        "RAAN(deg)": 124.99411931204362,
        "Satellite Name": "Test1 555",
        "Satellite Number": 555,
        "Semi-Major Axis(m)": 6980739.136638005,
        "Time(s)": 140
    },
    {
        "Altitude(m)": 612173.3183124419,
        "Argument of Periapsis(deg)": 0.0015628418869944607,
        "Eccentricity": 0.0,
        "Inclination(deg)": 60.0,
        "Latitude(deg)": 60.116141808278854,
        "Longitude(deg)": 116.64249470034461,
        "Mean Anomaly(deg)": 91.11979218192747,
        "RAAN(deg)": 124.99369926290387,
        "Satellite Name": "Test1 555",
        "Satellite Number": 555,
        "Semi-Major Axis(m)": 6980739.136638005,
        "Time(s)": 150
    },
    {
        "Altitude(m)": 612167.7538382141,
        "Argument of Periapsis(deg)": 0.0016670313461274247,
        "Eccentricity": 0.0,
        "Inclination(deg)": 60.0,
        "Latitude(deg)": 60.08933990121517,
        "Longitude(deg)": 117.83981817730619,
        "Mean Anomaly(deg)": 91.7398983273893,
        "RAAN(deg)": 124.99327921376414,
        "Satellite Name": "Test1 555",
        "Satellite Number": 555,
        "Semi-Major Axis(m)": 6980739.136638005,
        "Time(s)": 160
    },
    {
        "Altitude(m)": 612159.7503134839,
        "Argument of Periapsis(deg)": 0.0017712208052603888,
        "Eccentricity": 0.0,
        "Inclination(deg)": 60.0,
        "Latitude(deg)": 60.050968577260434,
        "Longitude(deg)": 119.03470031765228,
        "Mean Anomaly(deg)": 92.36000447285112,
        "RAAN(deg)": 124.99285916462439,
        "Satellite Name": "Test1 555",
        "Satellite Number": 555,
        "Semi-Major Axis(m)": 6980739.136638005,
        "Time(s)": 170
    },
    {
        "Altitude(m)": 612149.312362022,
        "Argument of Periapsis(deg)": 0.001875410264393353,
        "Eccentricity": 0.0,
        "Inclination(deg)": 60.0,
        "Latitude(deg)": 60.00107226062673,
        "Longitude(deg)": 120.2262886466084,
        "Mean Anomaly(deg)": 92.98011061831295,
        "RAAN(deg)": 124.99243911548466,
        "Satellite Name": "Test1 555",
        "Satellite Number": 555,
        "Semi-Major Axis(m)": 6980739.136638005,
        "Time(s)": 180
    },
    {
        "Altitude(m)": 612136.4460042398,
        "Argument of Periapsis(deg)": 0.0019795997235263173,
        "Eccentricity": 0.0,
        "Inclination(deg)": 60.0,
        "Latitude(deg)": 59.93970837977041,
        "Longitude(deg)": 121.41374638429119,
        "Mean Anomaly(deg)": 93.60021676377477,
        "RAAN(deg)": 124.99201906634491,
        "Satellite Name": "Test1 555",
        "Satellite Number": 555,
        "Semi-Major Axis(m)": 6980739.136638005,
        "Time(s)": 190
    }
]